COSMOS 2433 (720)       
1 32275C 07052A   22264.99979167  .00000000  00000-0  00000-0 0  2641
2 32275  66.0774   1.4699 0003965 219.0403 308.9308  2.13104309    17
COSMOS 2432 (719)       
1 32276C 07052B   22264.99979167  .00000000  00000-0  00000-0 0  2642
2 32276  66.0911   1.5725 0008173 319.6413 156.3802  2.13103431    15
COSMOS 2434 (721)       
1 32393C 07065A   22264.99979167  .00000000  00000-0  00000-0 0  2646
2 32393  64.3732 238.1303 0000359 113.3403 304.5306  2.13103230    16
COSMOS 2436 (723)       
1 32395C 07065C   22264.99979167  .00000000  00000-0  00000-0 0  2648
2 32395  64.3819 238.1883 0015377 351.9633 201.7196  2.13103033    14
COSMOS 2456 (730)       
1 36111C 09070A   22264.99979167 -.00000000  00000-0  00000-0 0  2647
2 36111  64.3756 117.7390 0001986 339.6627 242.4550  2.13099514    10
COSMOS 2457 (733)       
1 36112C 09070B   22264.99979167 -.00000000  00000-0  00000-0 0  2648
2 36112  64.3590 117.6125 0006142 149.1026 201.0666  2.13101548    18
COSMOS 2460 (732)       
1 36402C 10007C   22264.99979167  .00000000  00000-0  00000-0 0  2641
2 36402  65.9474   0.2429 0001695 177.3677 157.2560  2.13106565    14
COSMOS 2476 (744)       
1 37867C 11064A   22264.99979167 -.00000000  00000-0  00000-0 0  2642
2 37867  64.6625 119.1328 0020393 231.8603 256.5680  2.13102024    15
COSMOS 2477 (745)       
1 37868C 11064B   22264.99979167 -.00000000  00000-0  00000-0 0  2643
2 37868  64.6702 119.1985 0017758 232.1419  74.3595  2.13101830    16
COSMOS 2475 (743)       
1 37869C 11064C   22264.99979167 -.00000000  00000-0  00000-0 0  2644
2 37869  64.6774 119.2076 0021519 252.0043  12.6295  2.13102223    11
COSMOS 2485 (747)       
1 39155C 13019A   22264.99979167 -.00000000  00000-0  00000-0 0  2646
2 39155  64.8256 119.5819 0020994 227.5813 305.2554  2.13102180    15
COSMOS 2492 (754)       
1 39620C 14012A   22264.99979167  .00000000  00000-0  00000-0 0  2646
2 39620  65.8332 359.9107 0011427 316.5607 250.6494  2.13103316    17
COSMOS 2500 (755)       
1 40001C 14032A   22264.99979167  .00000000  00000-0  00000-0 0  2643
2 40001  65.7725 359.7646 0008148 197.9133 227.6874  2.13102441    18
COSMOS 2501 (702K)      
1 40315C 14075A   22264.99979167  .00000000  00000-0  00000-0 0  2648
2 40315  63.6793 237.7896 0019120 212.3509  21.7283  2.13101605    19
COSMOS 2514 (751)       
1 41330C 16008A   22264.99979167  .00000000  00000-0  00000-0 0  2644
2 41330  65.5721 359.4325 0011757 208.0559  41.5537  2.13102839    15
COSMOS 2547 (705K)      
1 46805C 20075A   22264.99979167  .00000000  00000-0  00000-0 0  2645
2 46805  64.6511 238.2051 0008478 247.5777 259.9810  2.13103110    12
COSMOS 2522 (752)       
1 42939C 17055A   22264.99979167  .00000000  00000-0  00000-0 0  2643
2 42939  64.1392 238.5163 0009687 245.8917 123.6227  2.13102179    18
COSMOS 2527 (756)       
1 43508C 18053A   22264.99979167 -.00000000  00000-0  00000-0 0  2646
2 43508  64.9883 119.6021 0007148 217.0917 184.4959  2.13102611    15
COSMOS 2529 (757)       
1 43687C 18086A   22264.99979167  .00000000  00000-0  00000-0 0  2649
2 43687  64.3542 238.8584 0011588 265.0905  59.9489  2.13102280    16
COSMOS 2534 (758)       
1 44299C 19030A   22264.99979167  .00000000  00000-0  00000-0 0  2649
2 44299  64.4262 238.7522 0014026 283.3110 176.2247  2.13101981    10
COSMOS 2544 (759)       
1 44850C 19088A   22264.99979167 -.00000000  00000-0  00000-0 0  2646
2 44850  64.9737 119.4522 0010699 253.5778 191.3965  2.13102426    11
COSMOS 2545 (760)       
1 45358C 20018A   22264.99979167  .00000000  00000-0  00000-0 0  2644
2 45358  64.9106 359.9613 0009956 237.9785  56.3529  2.13102823    12
COSMOS 2557 (706K)      
1 52984C 20075A   22264.99979167  .00000000  00000-0  00000-0 0  2640
2 52984  64.8142   2.1598 0011871 276.2853 109.1164  2.13102109    13
